{
  "norad_id": 57624,
  "name": "LUDI TANCE-4 01A",
  "history": [
    {
      "epoch": "2026-03-23T19:09:39.892032Z",
      "apogee_km": 35805.53272171002,
      "perigee_km": 35765.77395397305,
      "latitude_deg": 0.5362988836451047,
      "longitude_deg": 89.33283873847361,
      "height_km": 35790.61770431528,
      "semi_major_axis_km": 42163.790337841536,
      "eccentricity": 0.00047148,
      "inclination_deg": 15.1599,
      "raan_deg": 196.0885,
      "arg_perigee_deg": 107.88,
      "mean_anomaly_deg": 254.1792,
      "mean_motion_rev_day": 1.00275144
    }
  ]
}